HAWK-11B                
1 62379U 24247C   26068.44730104  .00009093  00000+0  32842-3 0  9993
2 62379  45.0161 115.7610 0004690 333.0326  27.0314 15.28847070 67738
STARLINK-34206          
1 66098U 25236N   26068.38170772  .00027172  00000+0  92635-3 0  9990
2 66098  53.1580 105.5726 0001101  76.4635 283.6489 15.30194554 22880
