[{"OBJECT_NAME":"HAWK-11B","OBJECT_ID":"2024-247C","EPOCH":"2026-03-09T10:44:06.809856","MEAN_MOTION":15.2884707,"ECCENTRICITY":0.00046902,"INCLINATION":45.0161,"RA_OF_ASC_NODE":115.761,"ARG_OF_PERICENTER":333.0326,"MEAN_ANOMALY":27.0314,"EPHEMERIS_TYPE":0,"CLASSIFICATION_TYPE":"U","NORAD_CAT_ID":62379,"ELEMENT_SET_NO":999,"REV_AT_EPOCH":6773,"BSTAR":0.00032841927,"MEAN_MOTION_DOT":9.093e-5,"MEAN_MOTION_DDOT":0},{"OBJECT_NAME":"STARLINK-34206","OBJECT_ID":"2025-236N","EPOCH":"2026-03-09T09:09:39.547008","MEAN_MOTION":15.30194554,"ECCENTRICITY":0.0001101,"INCLINATION":53.158,"RA_OF_ASC_NODE":105.5726,"ARG_OF_PERICENTER":76.4635,"MEAN_ANOMALY":283.6489,"EPHEMERIS_TYPE":0,"CLASSIFICATION_TYPE":"U","NORAD_CAT_ID":66098,"ELEMENT_SET_NO":999,"REV_AT_EPOCH":2288,"BSTAR":0.0009263481,"MEAN_MOTION_DOT":0.00027172,"MEAN_MOTION_DDOT":0}]
